HJS-9A                  
1 68831U 26091A   26142.01507823  .00015537  00000+0  73937-3 0  9997
2 68831  55.0019 136.0532 0010737   0.3490 359.7535 15.19338069  4222
HJS-9B                  
1 68832U 26091B   26140.30580741  .00007504  00000+0  36494-3 0  9990
2 68832  55.0033 143.5342 0010456 350.8696   9.2132 15.19360480  3962
HJS-9C                  
1 68833U 26091C   26131.62099769  .00001851  00000+0  10239-3 0  9999
2 68833  55.0031 181.4760 0010473 338.0609  21.9961 15.18972133  2645
HJS-9D                  
1 68834U 26091D   26131.61679670  .00002448  00000+0  12871-3 0  9991
2 68834  55.0023 181.4507 0009841   9.4049 350.7153 15.19483940  2640
PRSC-E03                
1 68835U 26092A   26143.46650249  .00001937  00000+0  13574-3 0  9993
2 68835  38.0005 235.4414 0004504 203.8462 156.2091 15.06542596  4224
PROGRESS-MS 34          
1 68837U 26093A   26142.51965853  .00007327  00000+0  13945-3 0  9992
2 68837  51.6330  67.1668 0007537  86.3178 273.8673 15.49313075567834
STARLINK-37475          
1 68839U 26094A   26143.50004630  .00085749  00000+0  15633-2 0  9991
2 68839  97.2857 158.0973 0001446 100.6483 204.4753 15.49149672  5406
STARLINK-37452          
1 68840U 26094B   26143.50004630  .00103532  00000+0  18836-2 0  9992
2 68840  97.2859 158.0999 0001005 138.9850 169.3018 15.49140511  5340
STARLINK-37495          
1 68841U 26094C   26143.50004630  .00085354  00000+0  15562-2 0  9997
2 68841  97.2857 158.0737 0001333 106.0959 145.3467 15.49150099  5400
STARLINK-37524          
1 68842U 26094D   26143.50004630  .00103528  00000+0  18870-2 0  9997
2 68842  97.2851 158.1964 0001630  95.3743  87.1487 15.49087112  5409
STARLINK-37219          
1 68843U 26094E   26143.52612492  .00178471  00000+0  11690-2 0  9993
2 68843  97.2854 158.3880 0000956  77.7020 282.4352 15.75261695  4278
STARLINK-37538          
1 68844U 26094F   26143.50004630  .00087557  00000+0  15962-2 0  9991
2 68844  97.2854 158.1684 0001567  92.4751  19.7243 15.49143526  5402
