CCSDS_OMM_VERS = 2.0
CREATION_DATE  = 
ORIGINATOR     = 

OBJECT_NAME    = HJS-9A
OBJECT_ID      = 2026-091A
CENTER_NAME    = EARTH
REF_FRAME      = TEME
TIME_SYSTEM    = UTC
MEAN_ELEMENT_THEORY = SGP/SGP4

EPOCH          = 2026-05-22T00:21:42.759072
MEAN_MOTION    = 15.19338069
ECCENTRICITY   = .00107374
INCLINATION    = 55.0019
RA_OF_ASC_NODE = 136.0532
ARG_OF_PERICENTER = 0.3490
MEAN_ANOMALY   = 359.7535

EPHEMERIS_TYPE = 0
CLASSIFICATION_TYPE = U
NORAD_CAT_ID   = 68831
ELEMENT_SET_NO = 999
REV_AT_EPOCH   = 422
BSTAR          = .73937262E-3
MEAN_MOTION_DOT = .15537E-3
MEAN_MOTION_DDOT = 0

CCSDS_OMM_VERS = 2.0
CREATION_DATE  = 
ORIGINATOR     = 

OBJECT_NAME    = HJS-9B
OBJECT_ID      = 2026-091B
CENTER_NAME    = EARTH
REF_FRAME      = TEME
TIME_SYSTEM    = UTC
MEAN_ELEMENT_THEORY = SGP/SGP4

EPOCH          = 2026-05-20T07:20:21.760224
MEAN_MOTION    = 15.19360480
ECCENTRICITY   = .00104568
INCLINATION    = 55.0033
RA_OF_ASC_NODE = 143.5342
ARG_OF_PERICENTER = 350.8696
MEAN_ANOMALY   = 9.2132

EPHEMERIS_TYPE = 0
CLASSIFICATION_TYPE = U
NORAD_CAT_ID   = 68832
ELEMENT_SET_NO = 999
REV_AT_EPOCH   = 396
BSTAR          = .36493584E-3
MEAN_MOTION_DOT = .7504E-4
MEAN_MOTION_DDOT = 0

CCSDS_OMM_VERS = 2.0
CREATION_DATE  = 
ORIGINATOR     = 

OBJECT_NAME    = HJS-9C
OBJECT_ID      = 2026-091C
CENTER_NAME    = EARTH
REF_FRAME      = TEME
TIME_SYSTEM    = UTC
MEAN_ELEMENT_THEORY = SGP/SGP4

EPOCH          = 2026-05-11T14:54:14.200416
MEAN_MOTION    = 15.18972133
ECCENTRICITY   = .00104737
INCLINATION    = 55.0031
RA_OF_ASC_NODE = 181.4760
ARG_OF_PERICENTER = 338.0609
MEAN_ANOMALY   = 21.9961

EPHEMERIS_TYPE = 0
CLASSIFICATION_TYPE = U
NORAD_CAT_ID   = 68833
ELEMENT_SET_NO = 999
REV_AT_EPOCH   = 264
BSTAR          = .10239126E-3
MEAN_MOTION_DOT = .1851E-4
MEAN_MOTION_DDOT = 0

CCSDS_OMM_VERS = 2.0
CREATION_DATE  = 
ORIGINATOR     = 

OBJECT_NAME    = HJS-9D
OBJECT_ID      = 2026-091D
CENTER_NAME    = EARTH
REF_FRAME      = TEME
TIME_SYSTEM    = UTC
MEAN_ELEMENT_THEORY = SGP/SGP4

EPOCH          = 2026-05-11T14:48:11.234880
MEAN_MOTION    = 15.19483940
ECCENTRICITY   = .00098418
INCLINATION    = 55.0023
RA_OF_ASC_NODE = 181.4507
ARG_OF_PERICENTER = 9.4049
MEAN_ANOMALY   = 350.7153

EPHEMERIS_TYPE = 0
CLASSIFICATION_TYPE = U
NORAD_CAT_ID   = 68834
ELEMENT_SET_NO = 999
REV_AT_EPOCH   = 264
BSTAR          = .12870581E-3
MEAN_MOTION_DOT = .2448E-4
MEAN_MOTION_DDOT = 0

CCSDS_OMM_VERS = 2.0
CREATION_DATE  = 
ORIGINATOR     = 

OBJECT_NAME    = PRSC-E03
OBJECT_ID      = 2026-092A
CENTER_NAME    = EARTH
REF_FRAME      = TEME
TIME_SYSTEM    = UTC
MEAN_ELEMENT_THEORY = SGP/SGP4

EPOCH          = 2026-05-23T11:11:45.815136
MEAN_MOTION    = 15.06542596
ECCENTRICITY   = .0004504
INCLINATION    = 38.0005
RA_OF_ASC_NODE = 235.4414
ARG_OF_PERICENTER = 203.8462
MEAN_ANOMALY   = 156.2091

EPHEMERIS_TYPE = 0
CLASSIFICATION_TYPE = U
NORAD_CAT_ID   = 68835
ELEMENT_SET_NO = 999
REV_AT_EPOCH   = 422
BSTAR          = .13574E-3
MEAN_MOTION_DOT = .1937E-4
MEAN_MOTION_DDOT = 0

CCSDS_OMM_VERS = 2.0
CREATION_DATE  = 
ORIGINATOR     = 

OBJECT_NAME    = PROGRESS-MS 34
OBJECT_ID      = 2026-093A
CENTER_NAME    = EARTH
REF_FRAME      = TEME
TIME_SYSTEM    = UTC
MEAN_ELEMENT_THEORY = SGP/SGP4

EPOCH          = 2026-05-22T12:28:18.496992
MEAN_MOTION    = 15.49313075
ECCENTRICITY   = .00075371
INCLINATION    = 51.6330
RA_OF_ASC_NODE = 67.1668
ARG_OF_PERICENTER = 86.3178
MEAN_ANOMALY   = 273.8673

EPHEMERIS_TYPE = 0
CLASSIFICATION_TYPE = U
NORAD_CAT_ID   = 68837
ELEMENT_SET_NO = 999
REV_AT_EPOCH   = 56783
BSTAR          = .13944924E-3
MEAN_MOTION_DOT = .7327E-4
MEAN_MOTION_DDOT = 0

CCSDS_OMM_VERS = 2.0
CREATION_DATE  = 
ORIGINATOR     = 

OBJECT_NAME    = STARLINK-37475
OBJECT_ID      = 2026-094A
CENTER_NAME    = EARTH
REF_FRAME      = TEME
TIME_SYSTEM    = UTC
MEAN_ELEMENT_THEORY = SGP/SGP4

EPOCH          = 2026-05-23T12:00:04.000320
MEAN_MOTION    = 15.49149672
ECCENTRICITY   = .0001446
INCLINATION    = 97.2857
RA_OF_ASC_NODE = 158.0973
ARG_OF_PERICENTER = 100.6483
MEAN_ANOMALY   = 204.4753

EPHEMERIS_TYPE = 0
CLASSIFICATION_TYPE = U
NORAD_CAT_ID   = 68839
ELEMENT_SET_NO = 999
REV_AT_EPOCH   = 540
BSTAR          = .15633E-2
MEAN_MOTION_DOT = .85749E-3
MEAN_MOTION_DDOT = 0

CCSDS_OMM_VERS = 2.0
CREATION_DATE  = 
ORIGINATOR     = 

OBJECT_NAME    = STARLINK-37452
OBJECT_ID      = 2026-094B
CENTER_NAME    = EARTH
REF_FRAME      = TEME
TIME_SYSTEM    = UTC
MEAN_ELEMENT_THEORY = SGP/SGP4

EPOCH          = 2026-05-23T12:00:04.000320
MEAN_MOTION    = 15.49140511
ECCENTRICITY   = .0001005
INCLINATION    = 97.2859
RA_OF_ASC_NODE = 158.0999
ARG_OF_PERICENTER = 138.9850
MEAN_ANOMALY   = 169.3018

EPHEMERIS_TYPE = 0
CLASSIFICATION_TYPE = U
NORAD_CAT_ID   = 68840
ELEMENT_SET_NO = 999
REV_AT_EPOCH   = 534
BSTAR          = .18836E-2
MEAN_MOTION_DOT = .103532E-2
MEAN_MOTION_DDOT = 0

CCSDS_OMM_VERS = 2.0
CREATION_DATE  = 
ORIGINATOR     = 

OBJECT_NAME    = STARLINK-37495
OBJECT_ID      = 2026-094C
CENTER_NAME    = EARTH
REF_FRAME      = TEME
TIME_SYSTEM    = UTC
MEAN_ELEMENT_THEORY = SGP/SGP4

EPOCH          = 2026-05-23T12:00:04.000320
MEAN_MOTION    = 15.49150099
ECCENTRICITY   = .0001333
INCLINATION    = 97.2857
RA_OF_ASC_NODE = 158.0737
ARG_OF_PERICENTER = 106.0959
MEAN_ANOMALY   = 145.3467

EPHEMERIS_TYPE = 0
CLASSIFICATION_TYPE = U
NORAD_CAT_ID   = 68841
ELEMENT_SET_NO = 999
REV_AT_EPOCH   = 540
BSTAR          = .15562E-2
MEAN_MOTION_DOT = .85354E-3
MEAN_MOTION_DDOT = 0

CCSDS_OMM_VERS = 2.0
CREATION_DATE  = 
ORIGINATOR     = 

OBJECT_NAME    = STARLINK-37524
OBJECT_ID      = 2026-094D
CENTER_NAME    = EARTH
REF_FRAME      = TEME
TIME_SYSTEM    = UTC
MEAN_ELEMENT_THEORY = SGP/SGP4

EPOCH          = 2026-05-23T12:00:04.000320
MEAN_MOTION    = 15.49087112
ECCENTRICITY   = .000163
INCLINATION    = 97.2851
RA_OF_ASC_NODE = 158.1964
ARG_OF_PERICENTER = 95.3743
MEAN_ANOMALY   = 87.1487

EPHEMERIS_TYPE = 0
CLASSIFICATION_TYPE = U
NORAD_CAT_ID   = 68842
ELEMENT_SET_NO = 999
REV_AT_EPOCH   = 540
BSTAR          = .1887E-2
MEAN_MOTION_DOT = .103528E-2
MEAN_MOTION_DDOT = 0

CCSDS_OMM_VERS = 2.0
CREATION_DATE  = 
ORIGINATOR     = 

OBJECT_NAME    = STARLINK-37219
OBJECT_ID      = 2026-094E
CENTER_NAME    = EARTH
REF_FRAME      = TEME
TIME_SYSTEM    = UTC
MEAN_ELEMENT_THEORY = SGP/SGP4

EPOCH          = 2026-05-23T12:37:37.193088
MEAN_MOTION    = 15.75261695
ECCENTRICITY   = .0000956
INCLINATION    = 97.2854
RA_OF_ASC_NODE = 158.3880
ARG_OF_PERICENTER = 77.7020
MEAN_ANOMALY   = 282.4352

EPHEMERIS_TYPE = 0
CLASSIFICATION_TYPE = U
NORAD_CAT_ID   = 68843
ELEMENT_SET_NO = 999
REV_AT_EPOCH   = 427
BSTAR          = .1169E-2
MEAN_MOTION_DOT = .178471E-2
MEAN_MOTION_DDOT = 0

CCSDS_OMM_VERS = 2.0
CREATION_DATE  = 
ORIGINATOR     = 

OBJECT_NAME    = STARLINK-37538
OBJECT_ID      = 2026-094F
CENTER_NAME    = EARTH
REF_FRAME      = TEME
TIME_SYSTEM    = UTC
MEAN_ELEMENT_THEORY = SGP/SGP4

EPOCH          = 2026-05-23T12:00:04.000320
MEAN_MOTION    = 15.49143526
ECCENTRICITY   = .0001567
INCLINATION    = 97.2854
RA_OF_ASC_NODE = 158.1684
ARG_OF_PERICENTER = 92.4751
MEAN_ANOMALY   = 19.7243

EPHEMERIS_TYPE = 0
CLASSIFICATION_TYPE = U
NORAD_CAT_ID   = 68844
ELEMENT_SET_NO = 999
REV_AT_EPOCH   = 540
BSTAR          = .15962E-2
MEAN_MOTION_DOT = .87557E-3
MEAN_MOTION_DDOT = 0

